NORAD_CAT_ID,OBJECT_NAME,OBJECT_TYPE,EPOCH,MEAN_MOTION,ECCENTRICITY,INCLINATION,RA_OF_ASC_NODE,ARG_OF_PERICENTER,MEAN_ANOMALY,BSTAR,MEAN_MOTION_DOT,MEAN_MOTION_DDOT,TLE_LINE0,TLE_LINE1,TLE_LINE2,SEMIMAJOR_AXIS,PERIOD,APOGEE,PERIGEE,DECAYED
56460.0,STARLINK-6047,PAYLOAD,2023-11-25 11:55:41,14.98328415,0.000309,70.0009,90.2231,275.8606,84.2201,9.7635e-05,1.072e-05,0.0,0 STARLINK-6047,1 56460U 23064N   23329.49700557  .00001072  00000-0  97635-4 0  9996,2 56460  70.0009  90.2231 0003090 275.8606  84.2201 14.98328415 30142,6950.198,96.107,574.21,569.915,0.0
56460.0,STARLINK-6047,PAYLOAD,2023-11-25 18:20:12,14.98342252,0.0002639,70.0015,89.5495,274.7688,85.317,0.00013761,1.55e-05,0.0,0 STARLINK-6047,1 56460U 23064N   23329.76403536  .00001550  00000-0  13761-3 0  9991,2 56460  70.0015  89.5495 0002639 274.7688  85.3170 14.98342252 30184,6950.155,96.106,573.854,570.186,0.0
56460.0,STARLINK-6047,PAYLOAD,2023-11-26 13:33:48,14.98350139,0.0002293,70.0026,87.5326,253.2952,106.7956,0.0001659,1.888e-05,0.0,0 STARLINK-6047,1 56460U 23064N   23330.56514423  .00001888  00000-0  16590-3 0  9996,2 56460  70.0026  87.5326 0002293 253.2952 106.7956 14.98350139 30306,6950.131,96.106,573.589,570.402,0.0
56460.0,STARLINK-6047,PAYLOAD,2023-11-26 18:22:15,14.98311095,0.0002981,70.001,87.0256,274.3189,85.7629,-0.00019288,-2.392e-05,0.0,0 STARLINK-6047,1 56460U 23064N   23330.76545731 -.00002392  00000-0 -19288-3 0  9994,2 56460  70.0010  87.0256 0002981 274.3189  85.7629 14.98311095 30699,6950.251,96.108,574.188,570.044,0.0
56460.0,STARLINK-6047,PAYLOAD,2023-11-27 11:59:43,14.98321193,0.0002846,70.0006,85.1735,265.3651,94.7183,-0.00018023,-2.242e-05,0.0,0 STARLINK-6047,1 56460U 23064N   23331.49981423 -.00002242  00000-0 -18023-3 0  9997,2 56460  70.0006  85.1735 0002846 265.3651  94.7183 14.98321193 30807,6950.22,96.108,574.063,570.107,0.0
56460.0,STARLINK-6047,PAYLOAD,2023-11-27 13:35:51,14.98323542,0.0002527,70.0013,85.0055,256.903,103.1847,-0.00014504,-1.823e-05,0.0,0 STARLINK-6047,1 56460U 23064N   23331.56657187 -.00001823  00000-0 -14504-3 0  9996,2 56460  70.0013  85.0055 0002527 256.9030 103.1847 14.98323542 30455,6950.213,96.107,573.834,570.322,0.0
56460.0,STARLINK-6047,PAYLOAD,2023-11-27 16:48:07,14.98323521,0.0002436,70.0017,84.6694,254.0609,106.0281,-0.00013131,-1.659e-05,0.0,0 STARLINK-6047,1 56460U 23064N   23331.70009203 -.00001659  00000-0 -13131-3 0  9994,2 56460  70.0017  84.6694 0002436 254.0609 106.0281 14.98323521 30476,6950.213,96.107,573.771,570.385,0.0
56460.0,STARLINK-6047,PAYLOAD,2023-11-28 12:01:43,14.98338764,0.000272,70.0011,82.6489,256.7605,103.3251,-0.00015325,-1.921e-05,0.0,0 STARLINK-6047,1 56460U 23064N   23332.50120162 -.00001921  00000-0 -15325-3 0  9990,2 56460  70.0011  82.6489 0002720 256.7605 103.3251 14.98338764 30956,6950.166,96.106,573.921,570.14,0.0
56460.0,STARLINK-6047,PAYLOAD,2023-11-28 13:37:51,14.98336918,0.0002519,70.0024,82.4825,249.3813,110.7076,-0.00014207,-1.788e-05,0.0,0 STARLINK-6047,1 56460U 23064N   23332.56796261 -.00001788  00000-0 -14207-3 0  9994,2 56460  70.0024  82.4825 0002519 249.3813 110.7076 14.98336918 30605,6950.171,96.107,573.787,570.286,0.0
56460.0,STARLINK-6047,PAYLOAD,2023-11-28 16:50:07,14.98348872,0.0002627,70.0015,82.1436,266.4217,93.6641,-6.6666e-05,-8.89e-06,0.0,0 STARLINK-6047,1 56460U 23064N   23332.70147279 -.00000889  00000-0 -66666-4 0  9997,2 56460  70.0015  82.1436 0002627 266.4217  93.6641 14.98348872 30988,6950.135,96.106,573.825,570.174,0.0
56460.0,STARLINK-6047,PAYLOAD,2023-11-29 12:03:45,14.98324648,0.0002771,70.0007,80.1241,258.131,101.9539,9.9938e-05,1.099e-05,0.0,0 STARLINK-6047,1 56460U 23064N   23333.50260522  .00001099  00000-0  99938-4 0  9993,2 56460  70.0007  80.1241 0002771 258.1310 101.9539 14.98324648 31102,6950.209,96.107,574.0,570.149,0.0
56460.0,STARLINK-6047,PAYLOAD,2023-11-29 13:39:53,14.98321672,0.0002477,70.0021,79.9575,238.9932,121.0984,9.0974e-05,9.92e-06,0.0,0 STARLINK-6047,1 56460U 23064N   23333.56936719  .00000992  00000-0  90974-4 0  9999,2 56460  70.0021  79.9575 0002477 238.9932 121.0984 14.98321672 30754,6950.219,96.108,573.805,570.362,0.0
56460.0,STARLINK-6047,PAYLOAD,2023-11-30 12:05:46,14.98327128,0.0002579,70.0015,77.6009,256.8819,103.2052,-5.6373e-05,-7.65e-06,0.0,0 STARLINK-6047,1 56460U 23064N   23334.50400764 -.00000765  00000-0 -56373-4 0  9995,2 56460  70.0015  77.6009 0002579 256.8819 103.2052 14.98327128 31256,6950.202,96.107,573.859,570.274,0.0
56460.0,STARLINK-6047,PAYLOAD,2023-11-30 16:54:10,14.9833493,0.0002438,70.0016,77.0935,277.7342,82.354,-3.7822e-05,-5.44e-06,0.0,0 STARLINK-6047,1 56460U 23064N   23334.70428467 -.00000544  00000-0 -37822-4 0  9990,2 56460  70.0016  77.0935 0002438 277.7342  82.3540 14.98334930 31287,6950.178,96.107,573.737,570.348,0.0
56460.0,STARLINK-6047,PAYLOAD,2023-12-01 16:56:10,14.98332233,0.000232,70.0024,74.5716,244.8817,115.2102,8.154e-05,8.8e-06,0.0,0 STARLINK-6047,1 56460U 23064N   23335.70568011  .00000880  00000-0  81540-4 0  9998,2 56460  70.0024  74.5716 0002320 244.8817 115.2102 14.98332233 31438,6950.186,96.107,573.663,570.439,0.0
56460.0,STARLINK-6047,PAYLOAD,2023-12-02 12:09:46,14.9834472,0.0002273,70.0011,72.5502,249.2865,110.805,0.00015185,1.72e-05,0.0,0 STARLINK-6047,1 56460U 23064N   23336.50678357  .00001720  00000-0  15185-3 0  9997,2 56460  70.0011  72.5502 0002273 249.2865 110.8050 14.98344720 31554,6950.147,96.106,573.592,570.433,0.0
56460.0,STARLINK-6047,PAYLOAD,2023-12-02 13:45:54,14.98343117,0.0002401,70.0015,72.3824,250.3163,109.7737,0.00020643,2.372e-05,0.0,0 STARLINK-6047,1 56460U 23064N   23336.57354190  .00002372  00000-0  20643-3 0  9999,2 56460  70.0015  72.3824 0002401 250.3163 109.7737 14.98343117 31200,6950.152,96.106,573.686,570.349,0.0
56460.0,STARLINK-6047,PAYLOAD,2023-12-02 16:58:09,14.98348848,0.0002233,70.002,72.0455,290.8702,69.2217,0.00029137,3.387e-05,0.0,0 STARLINK-6047,1 56460U 23064N   23336.70705827  .00003387  00000-0  29137-3 0  9995,2 56460  70.0020  72.0455 0002233 290.8702  69.2217 14.98348848 31584,6950.135,96.106,573.552,570.448,0.0
56460.0,STARLINK-6047,PAYLOAD,2023-12-03 12:11:51,14.98292361,0.0002721,70.001,70.0262,252.2774,107.8088,-0.00044312,-5.371e-05,0.0,0 STARLINK-6047,1 56460U 23064N   23337.50823475 -.00005371  00000-0 -44312-3 0  9993,2 56460  70.0010  70.0262 0002721 252.2774 107.8088 14.98292361 31707,6950.309,96.109,574.065,570.283,0.0
56460.0,STARLINK-6047,PAYLOAD,2023-12-03 13:47:59,14.98292803,0.0002642,70.0012,69.8579,249.2873,110.8003,-0.0004322,-5.241e-05,0.0,0 STARLINK-6047,1 56460U 23064N   23337.57499534 -.00005241  00000-0 -43220-3 0  9998,2 56460  70.0012  69.8579 0002642 249.2873 110.8003 14.98292803 31357,6950.308,96.109,574.009,570.337,0.0
56460.0,STARLINK-6047,PAYLOAD,2023-12-04 10:37:42,14.9832964,0.0003001,69.9993,67.6667,264.4323,95.6494,-0.00014566,-1.831e-05,0.0,0 STARLINK-6047,1 56460U 23064N   23338.44285724 -.00001831  00000-0 -14566-3 0  9991,2 56460  69.9993  67.6667 0003001 264.4323  95.6494 14.98329640 31843,6950.194,96.107,574.145,569.973,0.0
56460.0,STARLINK-6047,PAYLOAD,2023-12-04 12:13:50,14.98331205,0.0002625,70.0003,67.4988,257.1736,102.9129,-9.6389e-05,-1.243e-05,0.0,0 STARLINK-6047,1 56460U 23064N   23338.50961453 -.00001243  00000-0 -96389-4 0  9999,2 56460  70.0003  67.4988 0002625 257.1736 102.9129 14.98331205 31498,6950.189,96.107,573.879,570.23,0.0
56460.0,STARLINK-6047,PAYLOAD,2023-12-05 09:03:36,14.98304314,0.0002977,70.0,65.3113,260.0881,99.9942,0.00037088,4.332e-05,0.0,0 STARLINK-6047,1 56460U 23064N   23339.37750640  .00004332  00000-0  37088-3 0  9999,2 56460  70.0000  65.3113 0002977 260.0881  99.9942 14.98304314 31989,6950.272,96.109,574.206,570.068,0.0
56460.0,STARLINK-6047,PAYLOAD,2023-12-05 12:15:52,14.98305149,0.0002774,70.0009,64.976,253.1148,106.9707,0.00038752,4.531e-05,0.0,0 STARLINK-6047,1 56460U 23064N   23339.51102705  .00004531  00000-0  38752-3 0  9998,2 56460  70.0009  64.9760 0002774 253.1148 106.9707 14.98305149 31643,6950.27,96.109,574.063,570.207,0.0
56460.0,STARLINK-6047,PAYLOAD,2023-12-05 15:28:08,14.98311871,0.000293,70.0,64.6381,257.841,102.2421,0.00041974,4.916e-05,0.0,0 STARLINK-6047,1 56460U 23064N   23339.64454382  .00004916  00000-0  41974-3 0  9990,2 56460  70.0000  64.6381 0002930 257.8410 102.2421 14.98311871 32021,6950.249,96.108,574.15,570.078,0.0
56460.0,STARLINK-6047,PAYLOAD,2023-12-06 10:41:43,14.98343324,0.0002587,70.002,62.6218,255.9498,104.1374,0.00031034,3.613e-05,0.0,0 STARLINK-6047,1 56460U 23064N   23340.44564717  .00003613  00000-0  31034-3 0  9993,2 56460  70.0020  62.6218 0002587 255.9498 104.1374 14.98343324 32142,6950.152,96.106,573.815,570.219,0.0
56460.0,STARLINK-6047,PAYLOAD,2023-12-06 12:17:52,14.98322386,0.000249,70.002,62.4528,255.5496,104.5386,0.00065425,7.72e-05,0.0,0 STARLINK-6047,1 56460U 23064N   23340.51240987  .00007720  00000-0  65425-3 0  9995,2 56460  70.0020  62.4528 0002490 255.5496 104.5386 14.98322386 31793,6950.216,96.107,573.812,570.351,0.0
56460.0,STARLINK-6047,PAYLOAD,2023-12-07 12:19:53,14.98337534,0.0002447,70.0038,59.9323,215.2088,144.8909,-0.00023646,-2.914e-05,0.0,0 STARLINK-6047,1 56460U 23064N   23341.51381599 -.00002914  00000-0 -23646-3 0  9992,2 56460  70.0038  59.9323 0002447 215.2088 144.8909 14.98337534 32305,6950.17,96.107,573.735,570.334,0.0
56460.0,STARLINK-6047,PAYLOAD,2023-12-07 15:32:16,14.98248805,0.0001914,70.0033,59.5937,246.28,113.8158,-0.0013196,-0.00015769,0.0,0 STARLINK-6047,1 56460U 23064N   23341.64741442 -.00015769  00000-0 -13196-2 0  9993,2 56460  70.0033  59.5937 0001914 246.2800 113.8158 14.98248805 32327,6950.444,96.112,573.639,570.979,0.0
56460.0,STARLINK-6047,PAYLOAD,2023-12-08 04:21:13,14.98337472,0.0002844,70.003,58.244,257.1983,102.8858,-0.00016377,-2.047e-05,0.0,0 STARLINK-6047,1 56460U 23064N   23342.18140728 -.00002047  00000-0 -16377-3 0  9993,2 56460  70.0030  58.2440 0002844 257.1983 102.8858 14.98337472 32408,6950.17,96.107,574.011,570.058,0.0
